ONEWEB-0650             
1 55813U 23029T   23259.05031690  .00000066  00000+0  13176-3 0  9995
2 55813  87.9259 145.0060 0002606  84.0732 276.0698 13.19723468 27010
ONEWEB-0652             
1 55814U 23029U   23259.25001157 -.00043675  00000+0 -10754+0 0  9993
2 55814  87.9183 129.7496 0001670  83.5775 181.9457 13.21038520 28020
ONEWEB-0653             
1 55815U 23029V   23259.25001157  .00000013  00000+0  00000+0 0  9994
2 55815  87.9279 129.6742 0004415  85.6951 185.7374 13.23066099 28056
ONEWEB-0654             
1 55816U 23029W   23259.25001157  .00000013  00000+0  00000+0 0  9995
2 55816  87.9164 129.7403 0000860 194.2624 181.9413 13.20225422 28088
ONEWEB-0656             
1 55817U 23029X   23259.25001157 -.01095694  00000+0 -64823+0 0  9991
2 55817  87.1270 117.2294 0003714  83.1016  85.4234 14.11356771 28948
ONEWEB-0657             
1 55818U 23029Y   23258.21158861  .00000076  00000+0  15752-3 0  9990
2 55818  87.9265 145.1759 0001854  42.9317 317.1960 13.19728959 26225
ONEWEB-0658             
1 55819U 23029Z   23258.96500412  .00000080  00000+0  16812-3 0  9999
2 55819  87.9248 144.9764 0002551  76.1961 283.9455 13.19729356 27018
ONEWEB-0660             
1 55820U 23029AA  23259.25001157 -.00037594  00000+0 -92300-1 0  9992
2 55820  87.9250 129.7080 0003727  90.9578 349.5873 13.21189444 28081
